CCSDS_OMM_VERS = 2.0
CREATION_DATE  = 
ORIGINATOR     = 

OBJECT_NAME    = SOYUZ-MS 28
OBJECT_ID      = 2025-275A
CENTER_NAME    = EARTH
REF_FRAME      = TEME
TIME_SYSTEM    = UTC
MEAN_ELEMENT_THEORY = SGP/SGP4

EPOCH          = 2026-01-03T12:47:11.243328
MEAN_MOTION    = 15.49066978
ECCENTRICITY   = .00075608
INCLINATION    = 51.6327
RA_OF_ASC_NODE = 34.5663
ARG_OF_PERICENTER = 336.0107
MEAN_ANOMALY   = 24.0528

EPHEMERIS_TYPE = 0
CLASSIFICATION_TYPE = U
NORAD_CAT_ID   = 66664
ELEMENT_SET_NO = 999
REV_AT_EPOCH   = 128
BSTAR          = .25296627E-3
MEAN_MOTION_DOT = .13553E-3
MEAN_MOTION_DDOT = 0

CCSDS_OMM_VERS = 2.0
CREATION_DATE  = 
ORIGINATOR     = 

OBJECT_NAME    = 1998-067XS
OBJECT_ID      = 1998-067XS
CENTER_NAME    = EARTH
REF_FRAME      = TEME
TIME_SYSTEM    = UTC
MEAN_ELEMENT_THEORY = SGP/SGP4

EPOCH          = 2026-01-03T13:39:33.993216
MEAN_MOTION    = 15.51896451
ECCENTRICITY   = .00024495
INCLINATION    = 51.6318
RA_OF_ASC_NODE = 34.0602
ARG_OF_PERICENTER = 317.8202
MEAN_ANOMALY   = 42.2599

EPHEMERIS_TYPE = 0
CLASSIFICATION_TYPE = U
NORAD_CAT_ID   = 66906
ELEMENT_SET_NO = 999
REV_AT_EPOCH   = 500
BSTAR          = .53068036E-3
MEAN_MOTION_DOT = .32069E-3
MEAN_MOTION_DDOT = 0

CCSDS_OMM_VERS = 2.0
CREATION_DATE  = 
ORIGINATOR     = 

OBJECT_NAME    = 1998-067XT
OBJECT_ID      = 1998-067XT
CENTER_NAME    = EARTH
REF_FRAME      = TEME
TIME_SYSTEM    = UTC
MEAN_ELEMENT_THEORY = SGP/SGP4

EPOCH          = 2026-01-03T08:23:34.261440
MEAN_MOTION    = 15.54636251
ECCENTRICITY   = .00039175
INCLINATION    = 51.6314
RA_OF_ASC_NODE = 34.8450
ARG_OF_PERICENTER = 359.2248
MEAN_ANOMALY   = 0.8736

EPHEMERIS_TYPE = 0
CLASSIFICATION_TYPE = U
NORAD_CAT_ID   = 66907
ELEMENT_SET_NO = 999
REV_AT_EPOCH   = 497
BSTAR          = .16211481E-2
MEAN_MOTION_DOT = .110395E-2
MEAN_MOTION_DDOT = 0

CCSDS_OMM_VERS = 2.0
CREATION_DATE  = 
ORIGINATOR     = 

OBJECT_NAME    = 1998-067XU
OBJECT_ID      = 1998-067XU
CENTER_NAME    = EARTH
REF_FRAME      = TEME
TIME_SYSTEM    = UTC
MEAN_ELEMENT_THEORY = SGP/SGP4

EPOCH          = 2026-01-03T08:22:01.682112
MEAN_MOTION    = 15.54610164
ECCENTRICITY   = .00039147
INCLINATION    = 51.6306
RA_OF_ASC_NODE = 34.8369
ARG_OF_PERICENTER = 355.2960
MEAN_ANOMALY   = 4.7994

EPHEMERIS_TYPE = 0
CLASSIFICATION_TYPE = U
NORAD_CAT_ID   = 66908
ELEMENT_SET_NO = 999
REV_AT_EPOCH   = 497
BSTAR          = .16812928E-2
MEAN_MOTION_DOT = .114458E-2
MEAN_MOTION_DDOT = 0

CCSDS_OMM_VERS = 2.0
CREATION_DATE  = 
ORIGINATOR     = 

OBJECT_NAME    = SILVERSAT
OBJECT_ID      = 1998-067XV
CENTER_NAME    = EARTH
REF_FRAME      = TEME
TIME_SYSTEM    = UTC
MEAN_ELEMENT_THEORY = SGP/SGP4

EPOCH          = 2026-01-03T06:43:44.463072
MEAN_MOTION    = 15.55112972
ECCENTRICITY   = .0004042
INCLINATION    = 51.6307
RA_OF_ASC_NODE = 35.1315
ARG_OF_PERICENTER = 3.2126
MEAN_ANOMALY   = 356.8890

EPHEMERIS_TYPE = 0
CLASSIFICATION_TYPE = U
NORAD_CAT_ID   = 66909
ELEMENT_SET_NO = 999
REV_AT_EPOCH   = 496
BSTAR          = .1749E-2
MEAN_MOTION_DOT = .121416E-2
MEAN_MOTION_DDOT = 0

CCSDS_OMM_VERS = 2.0
CREATION_DATE  = 
ORIGINATOR     = 

OBJECT_NAME    = 1998-067XW
OBJECT_ID      = 1998-067XW
CENTER_NAME    = EARTH
REF_FRAME      = TEME
TIME_SYSTEM    = UTC
MEAN_ELEMENT_THEORY = SGP/SGP4

EPOCH          = 2026-01-03T12:52:51.307680
MEAN_MOTION    = 15.54935821
ECCENTRICITY   = .00031663
INCLINATION    = 51.6305
RA_OF_ASC_NODE = 33.8420
ARG_OF_PERICENTER = 337.4672
MEAN_ANOMALY   = 22.6179

EPHEMERIS_TYPE = 0
CLASSIFICATION_TYPE = U
NORAD_CAT_ID   = 66910
ELEMENT_SET_NO = 999
REV_AT_EPOCH   = 500
BSTAR          = .1377224E-2
MEAN_MOTION_DOT = .94552E-3
MEAN_MOTION_DDOT = 0

CCSDS_OMM_VERS = 2.0
CREATION_DATE  = 
ORIGINATOR     = 

OBJECT_NAME    = 1998-067XX
OBJECT_ID      = 1998-067XX
CENTER_NAME    = EARTH
REF_FRAME      = TEME
TIME_SYSTEM    = UTC
MEAN_ELEMENT_THEORY = SGP/SGP4

EPOCH          = 2026-01-03T08:03:53.322048
MEAN_MOTION    = 15.55746909
ECCENTRICITY   = .00030952
INCLINATION    = 51.6316
RA_OF_ASC_NODE = 34.7530
ARG_OF_PERICENTER = 350.1444
MEAN_ANOMALY   = 9.9486

EPHEMERIS_TYPE = 0
CLASSIFICATION_TYPE = U
NORAD_CAT_ID   = 66911
ELEMENT_SET_NO = 999
REV_AT_EPOCH   = 496
BSTAR          = .18813391E-2
MEAN_MOTION_DOT = .133933E-2
MEAN_MOTION_DDOT = 0

CCSDS_OMM_VERS = 2.0
CREATION_DATE  = 
ORIGINATOR     = 

OBJECT_NAME    = 1998-067XY
OBJECT_ID      = 1998-067XY
CENTER_NAME    = EARTH
REF_FRAME      = TEME
TIME_SYSTEM    = UTC
MEAN_ELEMENT_THEORY = SGP/SGP4

EPOCH          = 2026-01-03T07:04:42.922272
MEAN_MOTION    = 15.53613153
ECCENTRICITY   = .0003743
INCLINATION    = 51.6316
RA_OF_ASC_NODE = 35.2295
ARG_OF_PERICENTER = 346.2968
MEAN_ANOMALY   = 13.7920

EPHEMERIS_TYPE = 0
CLASSIFICATION_TYPE = U
NORAD_CAT_ID   = 66912
ELEMENT_SET_NO = 999
REV_AT_EPOCH   = 495
BSTAR          = .13036E-2
MEAN_MOTION_DOT = .85142E-3
MEAN_MOTION_DDOT = 0

